HST                     
1 20580U 90037B   21008.53229799  .00000530  00000-0  21168-4 0  9991
2 20580  28.4711  43.1406 0002860 135.8034 351.4306 15.09530796487071
POLAR                   
1 23802U 96013A   21005.47460374  .00000256  00000-0  00000-0 0  9990
2 23802  78.7064 247.3118 6138347 276.6129  21.5002  1.29846364119037
SWAS                    
1 25560U 98071A   21008.34323934  .00000137  00000-0  21399-4 0  9994
2 25560  69.8972 228.1041 0006717   8.3225 351.8041 14.93983938199626
CXO                     
1 25867U 99040B   21009.43773594  .00000366  00000-0  00000-0 0  9999
2 25867  58.5739 260.9474 8066708 226.5307   0.0669  0.37803089  9838
XMM-NEWTON              
1 25989U 99066A   21006.97995301 -.00000073  00000-0  00000-0 0  9996
2 25989  70.9979 315.8536 6818573  91.7245   0.4630  0.50136561 13041
TERRA                   
1 25994U 99068A   21008.58114785  .00000049  00000-0  20792-4 0  9998
2 25994  98.1945  85.8026 0001278  99.8176   7.6710 14.57118726120066
CLUSTER II-FM7 (SAMBA)  
1 26410U 00041A   21009.15592956  .00000321  00000-0  00000-0 0  9998
2 26410 132.3751 343.2302 4654059 188.4266 359.2896  0.44239076 11494
CLUSTER II-FM6 (SALSA)  
1 26411U 00041B   21009.22465905  .00000376  00000-0  00000-0 0  9990
2 26411 132.7480 344.7780 6061301 193.6629 359.2455  0.44226000 11538
CLUSTER II-FM5 (RUMBA)  
1 26463U 00045A   21009.22197490  .00000418  00000-0  00000-0 0  9999
2 26463 136.3845 344.6161 5641692 193.6832 359.2590  0.44225535 11424
CLUSTER II-FM8 (TANGO)  
1 26464U 00045B   21009.15540692  .00000321  00000-0  00000-0 0  9991
2 26464 132.3665 343.2243 4656336 188.4026 359.3169  0.44216984 11504
ODIN                    
1 26702U 01007A   21008.53693886  .00000785  00000-0  54697-4 0  9999
2 26702  97.5453  27.9730 0009406 287.9502  72.0700 15.08263182 87122
TIMED                   
1 26998U 01055B   21008.35979072  .00000091  00000-0  13898-4 0  9991
2 26998  74.0716 245.2706 0002385 265.6167  94.4741 14.88257058 34923
RHESSI                  
1 27370U 02004A   21008.42428522  .00003231  00000-0  10033-3 0  9994
2 27370  38.0339   4.0220 0012938 215.2298 144.7619 15.33891792 45804
INTEGRAL                
1 27540U 02048A   21008.30727182  .00000858  00000-0  00000-0 0  9994
2 27540  59.6126  97.1817 8990972 296.8528   1.9464  0.37578530 19187
CORIOLIS                
1 27640U 03001A   21008.53685149 -.00000002  00000-0  19690-4 0  9997
2 27640  98.7245  20.8199 0014463 163.4070 308.1748 14.19057741932525
SORCE                   
1 27651U 03004A   21008.38837785  .00000110  00000-0  25532-4 0  9991
2 27651  39.9952 267.1031 0021724  17.4422 342.7109 14.89216821974756
MOST                    
1 27843U 03031D   21008.50920786 -.00000009  00000-0  15930-4 0  9991
2 27843  98.7097  18.8114 0009339 217.4866 142.5660 14.20626137908718
SCISAT 1                
1 27858U 03036A   21008.58658372  .00000074  00000-0  15500-4 0  9993
2 27858  73.9331 140.1177 0009165 296.1027  63.9203 14.77323433937949
SWIFT                   
1 28485U 04047A   21008.38671892  .00000998  00000-0  37570-4 0  9999
2 28485  20.5581  30.0685 0011291 128.5481 231.5966 15.04822991884367
FORMOSAT-3 FM6          
1 29047U 06011A   21008.40924257 -.00000038  00000-0  13970-5 0  9991
2 29047  71.9786  51.6556 0048123  67.2202 293.4008 14.28771154770591
FORMOSAT-3 FM1          
1 29048U 06011B   21008.29250215  .00000089  00000-0  51480-4 0  9997
2 29048  71.9675 322.5603 0042653  24.2167 336.0961 14.28745145773054
FORMOSAT-3 FM5          
1 29049U 06011C   21008.49245375  .00000082  00000-0  48584-4 0  9995
2 29049  72.0206 134.9691 0033518  49.3442 311.0600 14.28822816768871
FORMOSAT-3 FM3          
1 29050U 06011D   21008.15384703  .00000116  00000-0  34771-4 0  9990
2 29050  72.0154 260.8196 0051313 311.0537  48.6186 14.59002227786187
FORMOSAT-3 FM4          
1 29051U 06011E   21008.48736432  .00000089  00000-0  50344-4 0  9990
2 29051  72.0053  36.6386 0070544 289.6613  69.6921 14.28859498771447
FORMOSAT-3 FM2          
1 29052U 06011F   21008.54228592  .00000068  00000-0  42707-4 0  9992
2 29052  72.0349 111.3453 0039983   7.2906 352.8804 14.28964267768997
CLOUDSAT                
1 29107U 06016A   21008.57163005  .00000094  00000-0  28121-4 0  9991
2 29107  98.2585 321.3939 0001963  94.1781 265.9644 14.62290698782300
CALIPSO                 
1 29108U 06016B   21008.55830488  .00000134  00000-0  35809-4 0  9992
2 29108  98.2565 321.1508 0001159  81.7358 278.3975 14.62489844782294
HINODE (SOLAR-B)        
1 29479U 06041A   21008.51628036  .00000064  00000-0  20974-4 0  9990
2 29479  98.1542  24.6596 0018335  83.9858 276.3433 14.65115676763911
SJ-6C                   
1 29505U 06046A   21008.47751434  .00000874  00000-0  85145-4 0  9999
2 29505  97.8090  27.4152 0006251  76.9261 283.2662 14.95024451774240
SJ-6D                   
1 29506U 06046B   21008.54803505  .00000595  00000-0  61829-4 0  9998
2 29506  97.8293  27.6720 0003081 130.9046 229.2435 14.93569986773780
AGILE                   
1 31135U 07013A   21008.33794638  .00002747  00000-0  48276-4 0  9999
2 31135   2.4687  31.3645 0011477 140.7821 219.3065 15.32979979396147
AIM                     
1 31304U 07015A   21008.42003363  .00001052  00000-0  61850-4 0  9998
2 31304  97.8841 264.5817 0005875  31.0681 329.0896 15.14024986751692
FGRST (GLAST)           
1 33053U 08029A   21008.57882116  .00000502  00000-0  11823-4 0  9998
2 33053  25.5819 143.3922 0012048 220.8586 139.1047 15.11440606694312
WISE                    
1 36119U 09071A   21008.53408087  .00000914  00000-0  33480-4 0  9999
2 36119  97.3051  47.8118 0003412  44.5705 315.5810 15.30519869615160
SDO                     
1 36395U 10005A   21008.29260306 -.00000074  00000-0  00000-0 0  9993
2 36395  30.6784 117.8683 0000502 263.5853  90.0143  1.00268946 40141
CRYOSAT 2               
1 36508U 10013A   21008.56735585  .00000110  00000-0  26479-4 0  9996
2 36508  92.0179 157.3184 0004351 213.8523 146.2407 14.51908969569992
X-SAT                   
1 37389U 11015C   21008.56509366 -.00000041  00000-0  39809-6 0  9990
2 37389  98.4079  61.4665 0015064  53.1935 307.0625 14.24386526505485
GCOM-W1 (SHIZUKU)       
1 38337U 12025A   21008.46383606  .00000052  00000-0  21589-4 0  9997
2 38337  98.2138 311.4626 0002424  61.3775  58.0931 14.57117313459862
NUSTAR                  
1 38358U 12031A   21007.96485527  .00000975  00000-0  27934-4 0  9990
2 38358   6.0254 223.3530 0012109 316.3938  43.5234 14.88426872466502
NEOSSAT                 
1 39089U 13009D   21008.54697441  .00000038  00000-0  28544-4 0  9991
2 39089  98.4498 212.1292 0012050  42.6792 317.5327 14.34540462411951
IRIS                    
1 39197U 13033A   21008.49875021  .00000141  00000-0  26299-4 0  9994
2 39197  97.9591 194.4025 0026403 287.6875  72.1454 14.78801434406388
HISAKI (SPRINT-A)       
1 39253U 13049A   21008.52042206  .00000160  00000-0  12946-3 0  9993
2 39253  29.7177 232.2349 0136980 123.5946 237.7783 13.55236550361843
CASSIOPE                
1 39265U 13055A   21008.53108925  .00002413  00000-0  65711-4 0  9997
2 39265  80.9677  99.8430 0654896  62.8912 303.7516 14.31016683377110
STSAT-3                 
1 39422U 13066G   21008.55546348  .00000140  00000-0  19907-4 0  9992
2 39422  97.4927  36.8563 0021874 227.9154 132.0244 14.89903866387674
SWARM B                 
1 39451U 13067A   21008.56065981  .00000380  00000-0  15129-4 0  9993
2 39451  87.7541 218.4158 0003478 108.5844 251.5779 15.21890844381153
SWARM A                 
1 39452U 13067B   21008.54736398  .00001289  00000-0  26272-4 0  9999
2 39452  87.3596  56.0275 0002329  79.9767 280.1754 15.45114495400841
SWARM C                 
1 39453U 13067C   21008.54727376  .00001285  00000-0  26179-4 0  9998
2 39453  87.3448  56.5681 0002323  80.0274 280.1246 15.45113162400806
BRITE-CA1 (TORONTO)     
1 40020U 14033L   21008.55940717  .00000107  00000-0  26362-4 0  9997
2 40020  97.7300 191.0644 0088280 137.4935 223.3150 14.66696240350713
OCO 2                   
1 40059U 14035A   21008.57532049  .00000034  00000-0  17652-4 0  9999
2 40059  98.2134 312.2974 0001260  72.8767 287.2569 14.57114789346897
BRITE-PL2 (HEWELIUSZ)   
1 40119U 14049B   21008.22236305  .00000141  00000-0  23093-4 0  9994
2 40119  97.8920 104.4073 0017998 155.9164 204.2896 14.84586056346074
RESURS P2               
1 40360U 14087A   21008.51603999  .00000963  00000-0  31646-4 0  9998
2 40360  97.2377  99.2912 0009624 160.4676 326.4557 15.33919764337747
MMS 1                   
1 40482U 15011A   21002.04738269 -.00001132  00000-0  00000+0 0  9997
2 40482  32.0026 118.9242 8483333  27.2675 356.8315  0.28561816 11786
MMS 2                   
1 40483U 15011B   20359.39583333 -.00000873  00000-0  00000+0 0  9991
2 40483  31.9421 119.0520 8478594  26.9368 187.7615  0.28570892 11736
MMS 3                   
1 40484U 15011C   20359.39583333 -.00000874  00000-0  00000+0 0  9993
2 40484  31.9509 119.0403 8480379  26.9346 187.7683  0.28571045 11730
MMS 4                   
1 40485U 15011D   20359.39583333 -.00000873  00000-0  00000+0 0  9993
2 40485  31.9433 119.0523 8479943  26.9371 187.7469  0.28570861 11730
ASTROSAT                
1 40930U 15052A   21007.99325561  .00000740  00000-0  14736-4 0  9995
2 40930   5.9975 324.3654 0009002 280.9165  78.9950 14.76362935285450
DAMPE                   
1 41173U 15078A   21008.50481819  .00000120  00000-0  78747-5 0  9995
2 41173  97.3383   3.9399 0012022 247.1436 227.9193 15.23947590281625
PISAT                   
1 41784U 16059B   21008.39792705  .00000093  00000-0  26898-4 0  9997
2 41784  97.9921  65.0202 0032485  29.6436 330.6599 14.63576562228888
HXMT (HUIYAN)           
1 42758U 17034A   21008.41346241  .00000362  00000-0  36079-4 0  9997
2 42758  43.0185 351.4692 0010434 243.2171 248.4665 15.09027463196830
FLYING LAPTOP           
1 42831U 17042G   21008.59774296  .00000172  00000-0  22542-4 0  9991
2 42831  97.4911 246.5665 0013208 326.6918  33.3493 14.91219009189867
PICSAT                  
1 43132U 18004X   21008.27210003  .00001905  00000-0  78790-4 0  9992
2 43132  97.4275  84.1946 0010593  58.7750 301.4524 15.25163914166268
ZHANGZHENG-1 (CSES)     
1 43194U 18015C   21008.52622689  .00001452  00000-0  68473-4 0  9991
2 43194  97.4585 137.2813 0014551 108.3361  21.6464 15.21008438162839
ICON                    
1 44628U 19068A   21008.54032651  .00000506  00000-0  29295-4 0  9997
2 44628  26.9893 135.4412 0019193  38.9596 321.2341 14.91828317 68088
SALSAT                  
1 46495U 20068K   21008.58870533 -.00000415  00000-0 -26003-4 0  9991
2 46495  97.6789 307.1861 0015500 253.1504 106.8024 15.03306387 15310
